STARLINK-3542           
1 51852U 22022A   26068.19026905  .00003420  00000+0  23273-3 0  9991
2 51852  53.2191  21.3629 0001209  96.3422 263.7708 15.08860060221681
PRSC-S1                 
1 65055U 25164A   26068.60758212  .00007316  00000+0  46631-3 0  9991
2 65055  41.1290 129.3637 0004466 348.3012  11.7698 15.08919510 33403
